STARLINK-1961
1 27562C 21009Q   21325.13273299  .00007994  00000-0  53566-3 0  3255
2 27562  53.0544 227.6392 0001773  64.9115  84.0909 15.06384448    16
